TDRS 3                  
1 19548U 88091B   23202.46523670 -.00000295  00000+0  00000+0 0  9990
2 19548  13.4177 348.2888 0033766 335.3599  93.9125  1.00272399114722
FLTSATCOM 8 (USA 46)    
1 20253U 89077A   23201.89704446 -.00000364  00000+0  00000+0 0  9995
2 20253  12.7382 357.6250 0006079  96.5062 292.8716  1.00268858249957
SKYNET 4C               
1 20776U 90079A   23201.67435977  .00000128  00000+0  00000+0 0  9992
2 20776  13.6831 357.1296 0002620 124.5369  92.8333  1.00267746120283
TDRS 5                  
1 21639U 91054B   23202.28234273  .00000088  00000+0  00000+0 0  9994
2 21639  14.2013   1.5761 0025082   1.2189 230.0645  1.00278535117057
TDRS 6                  
1 22314U 93003B   23202.36080071 -.00000292  00000+0  00000+0 0  9993
2 22314  14.1509   4.8575 0012550 141.5867 236.4873  1.00272720111735
UFO 2 (USA 95)          
1 22787U 93056A   23201.62450001  .00000127  00000+0  00000+0 0  9993
2 22787  11.5637   9.0635 0002232 110.0432  72.5588  1.00270062108006
USA 99 (MILSTAR-1 1)    
1 22988U 94009A   23202.14936997 -.00000198  00000+0  00000+0 0  9995
2 22988  15.9837  38.9236 0001745  75.1359 148.3925  1.00274458 20995
UFO 4 (USA 108)         
1 23467U 95003A   23202.35489366 -.00000020  00000+0  00000+0 0  9993
2 23467   9.7705  16.5030 0005503 108.7920 113.5697  1.00270821104296
AMSC 1                  
1 23553U 95019A   23202.62433692 -.00000091  00000+0  00000+0 0  9995
2 23553  12.3167  23.5740 0005469  92.6927 300.0856  1.00272469103524
TDRS 7                  
1 23613U 95035B   23201.96028340 -.00000200  00000+0  00000+0 0  9998
2 23613  13.8195 355.5981 0028874  68.1825 305.2357  1.00275704102508
USA 115 (MILSTAR-1 2)   
1 23712U 95060A   23202.46488900 -.00000017  00000+0  00000+0 0  9990
2 23712  13.6760  11.3893 0001678 147.9371 187.0069  1.00274965 20994
INMARSAT 3-F1           
1 23839U 96020A   23199.46400639 -.00000126  00000+0  00000+0 0  9996
2 23839   8.3595  55.4274 0008453  69.7353 243.6298  0.99979596 99901
INMARSAT 3-F2           
1 24307U 96053A   23200.93130604 -.00000278  00000+0  00000+0 0  9998
2 24307   7.4197  63.8409 0009736  44.9077 310.7176  1.00003769 98325
INMARSAT 3-F3           
1 24674U 96070A   23201.76692828  .00000121  00000+0  00000+0 0  9993
2 24674   7.9942  58.8730 0006850  66.7248 118.1611  0.99993314 97270
GALAXY 25 (G-25)        
1 24812U 97026A   23202.00555611 -.00000282  00000+0  00000+0 0  9994
2 24812   4.6906  79.6422 0012718  20.6820 343.3353  0.99039693 95692
INTELSAT 5 (IS-5)       
1 24916U 97046A   23202.41813645 -.00000061  00000+0  00000+0 0  9995
2 24916   8.0806  58.1456 0002694  97.6516  99.7873  1.00271521 94960
AMC-3 (GE-3)            
1 24936U 97050A   23201.94303453 -.00000259  00000+0  00000+0 0  9999
2 24936   5.5210  75.6267 0002597  44.5343  85.7731  1.00271555 94794
USA 134                 
1 25019U 97065A   23202.62122199 -.00000060  00000+0  00000+0 0  9990
2 25019  11.5148  28.9877 0002994  54.4430 327.2582  1.00272789 20966
INMARSAT 3-F5           
1 25153U 98006B   23202.02690649 -.00000288  00000+0  00000+0 0  9991
2 25153   7.2899  62.8487 0004305  58.5183 132.8777  1.00273499 93237
ASTRA 2A                
1 25462U 98050A   23201.79084907  .00000070  00000+0  00000+0 0  9998
2 25462   4.4018  81.2493 0003001  32.7320 166.2262  1.00274410 91088
SKYNET 4E               
1 25639U 99009B   23201.76178319 -.00000032  00000+0  00000+0 0  9996
2 25639  11.4508  14.8174 0002353 118.8253  77.6474  1.00273095 89360
ABS-6                   
1 25924U 99053A   23202.41305302 -.00000115  00000+0  00000+0 0  9991
2 25924   0.0274  82.1522 0003482  44.5193 119.9697  1.00268633 87185
UFO 10 (USA 146)        
1 25967U 99063A   23202.33085493 -.00000184  00000+0  00000+0 0  9992
2 25967   9.2086  32.0054 0004771 104.5404 258.5954  1.00273218 86698
GALAXY 11 (G-11)        
1 26038U 99071A   23201.60026819 -.00000159  00000+0  00000+0 0  9999
2 26038   4.0066  83.2545 0002728 114.6783 223.1260  1.00252162 86428
USA 148                 
1 26052U 00001A   23202.63664632  .00000041  00000+0  00000+0 0  9994
2 26052  10.1712  39.9344 0000688 152.4069 156.3145  1.00273164 20977
ASIASTAR                
1 26107U 00016A   23202.04493844 -.00000332  00000+0  00000+0 0  9995
2 26107   6.6137  68.6115 0003935  51.2914 299.8182  1.00269254 85506
USA 149 (DSP 20)        
1 26356U 00024A   23202.17340937  .00000099  00000+0  00000+0 0  9997
2 26356  12.3703  18.9356 0000886 269.4218 267.5122  1.00285750 20955
TDRS 8                  
1 26388U 00034A   23198.81806324 -.00000240  00000+0  00000+0 0  9994
2 26388  10.9922  39.7750 0020926 352.9416 286.5280  1.00269339 84491
INTELSAT 9 (IS-9)       
1 26451U 00043A   23202.12551983 -.00000287  00000+0  00000+0 0  9994
2 26451   8.0645  58.3365 0001941  68.3522 167.1368  1.00272860 84194
NSS-11 (AAP-1)          
1 26554U 00059A   23201.63454660  .00000029  00000+0  00000+0 0  9997
2 26554   0.0629 278.9670 0002342 152.2475 271.3796  1.00273436 83515
USA 153                 
1 26575U 00065A   23201.43591003 -.00000326  00000+0  00000+0 0  9999
2 26575   9.7751  43.2527 0000522 134.1078  51.6966  1.00266391 20959
AMC-6 (GE-6)            
1 26580U 00067A   23202.46714281  .00000110  00000+0  00000+0 0  9996
2 26580   0.0093  33.2370 0002498 102.6371 192.2600  1.00272212 83330
INTELSAT 1R (IS-1R)     
1 26608U 00072A   23202.41210697 -.00000136  00000+0  00000+0 0  9999
2 26608   5.4667  75.9149 0000647 111.6015  56.8485  1.00271783 83005
ANIK F1                 
1 26624U 00076A   23202.47120851 -.00000058  00000+0  00000+0 0  9992
2 26624   2.4476  87.8248 0010622  24.2414 247.3433  1.00271401 83081
USA 157 (MILSTAR-2 2)   
1 26715U 01009A   23202.61392072  .00000016  00000+0  00000+0 0  9995
2 26715  10.3996  25.4630 0001197  95.3746 275.0823  1.00270091 21003
INTELSAT 10 (IS-10)     
1 26766U 01019A   23202.63730104  .00000036  00000+0  00000+0 0  9998
2 26766   6.5251  69.8280 0002868  28.8908 247.6417  1.00271417 81283
INTELSAT 901 (IS-901)   
1 26824U 01024A   23201.97158135 -.00000198  00000+0  00000+0 0  9993
2 26824   0.0591 246.1973 0000953 254.6714 119.8770  1.00272665 80939
ASTRA 2C                
1 26853U 01025A   23202.45977058 -.00000257  00000+0  00000+0 0  9999
2 26853   5.5444  75.4366 0002912  27.7237 288.8162  1.00274320 80924
USA 159 (DSP 21)        
1 26880U 01033A   23202.31307275 -.00000296  00000+0  00000+0 0  9994
2 26880  11.7849  23.3490 0001489 261.9800  76.8817  1.00265390 20965
INTELSAT 902 (IS-902)   
1 26900U 01039A   23202.54045597 -.00000279  00000+0  00000+0 0  9995
2 26900   3.4126  84.5360 0002322  33.8056 325.1656  1.00271066 80127
USA 164 (MILSTAR-2 3)   
1 27168U 02001A   23201.70360183  .00000100  00000+0  00000+0 0  9992
2 27168   9.9360  27.3550 0099810 354.2228 188.8863  1.00269605 20999
INTELSAT 904 (IS-904)   
1 27380U 02007A   23202.14977944 -.00000212  00000+0  00000+0 0  9997
2 27380   4.2361  81.6234 0002765  43.5116 197.9358  1.00270765 78434
NSS-7                   
1 27414U 02019A   23202.25841817 -.00000157  00000+0  00000+0 0  9997
2 27414   6.8322  67.9016 0002386  56.3382 247.5349  1.00271376 77911
DIRECTV 5 (TEMPO 1)     
1 27426U 02023A   23202.47014354 -.00000052  00000+0  00000+0 0  9991
2 27426   2.1424  88.5014 0003150  38.1057 231.4849  1.00272351 77652
INTELSAT 905 (IS-905)   
1 27438U 02027A   23201.61395307 -.00000184  00000+0  00000+0 0  9999
2 27438   4.0585  82.3238 0002548  34.4512  17.8830  1.00271507 77310
GALAXY 3C (G-3C)        
1 27445U 02030A   23202.12140664 -.00000148  00000+0  00000+0 0  9992
2 27445   0.9787  90.3543 0001978 111.6713  45.4371  1.00271873 77304
INTELSAT 906 (IS-906)   
1 27513U 02041A   23201.79680479  .00000017  00000+0  00000+0 0  9999
2 27513   3.0826  85.8827 0003863  14.8329 188.5772  1.00270558 76317
TDRS 10                 
1 27566U 02055A   23202.43111946  .00000092  00000+0  00000+0 0  9995
2 27566   8.9370  47.6062 0006512 359.9242 235.6605  1.00278509 75582
NSS-6                   
1 27603U 02057A   23202.63174122  .00000112  00000+0  00000+0 0  9999
2 27603   2.6198  86.8765 0003003  23.5903 246.5402  1.00271680 75396
NIMIQ 2                 
1 27632U 02062A   23201.63444574 -.00000067  00000+0  00000+0 0  9997
2 27632   6.9349  67.3798 0005445  65.4390 284.5410  1.00273454 75213
USA 167                 
1 27691U 03008A   23202.27095819  .00000054  00000+0  00000+0 0  9993
2 27691   8.8283  51.9491 0000750  74.1401 140.2597  1.00271490 20974
USA 169 (MILSTAR-2 4)   
1 27711U 03012A   23202.48334980 -.00000192  00000+0  00000+0 0  9993
2 27711  10.7215  37.6459 0098640 355.1835 232.3027  1.00273805 20992
GALAXY 12 (G-12)        
1 27715U 03013B   23202.60644972  .00000099  00000+0  00000+0 0  9992
2 27715   4.2709  81.3276 0001715  29.0507 269.9416  1.00272384 74364
ASIASAT 4               
1 27718U 03014A   23202.04571464 -.00000219  00000+0  00000+0 0  9994
2 27718   1.9737  89.1242 0003022  21.5900 351.8275  1.00270088 74271
HELLAS-SAT 2            
1 27811U 03020A   23202.05914686 -.00000080  00000+0  00000+0 0  9999
2 27811   4.6807  80.2659 0005565  43.0559 186.4955  1.00272334 73687
THURAYA-2               
1 27825U 03026A   23202.20078903  .00000130  00000+0  00000+0 0  9995
2 27825   7.2476  34.5735 0002315  69.5933 310.8073  1.00271972 73691
OPTUS C1                
1 27831U 03028B   23202.67688191 -.00000146  00000+0  00000+0 0  9999
2 27831   4.2017  82.0122 0005243  36.6492 219.9053  1.00272909 73689
GALAXY 23 (G-23)        
1 27854U 03034A   23202.47764501  .00000017  00000+0  00000+0 0  9995
2 27854   0.4469  94.1370 0002982  33.0690 222.8038  1.00274723 77901
USA 170                 
1 27875U 03040A   23200.96521317 -.00000276  00000+0  00000+0 0  9991
2 27875   8.2210  57.0612 0004624  80.1151 105.0046  1.00267210 20969
